[{"OBJECT_NAME":"STARLINK-5634","OBJECT_ID":"2023-014BA","EPOCH":"2026-03-09T19:14:07.061568","MEAN_MOTION":14.98332651,"ECCENTRICITY":0.00034121,"INCLINATION":69.9994,"RA_OF_ASC_NODE":104.2513,"ARG_OF_PERICENTER":269.9293,"MEAN_ANOMALY":90.1475,"EPHEMERIS_TYPE":0,"CLASSIFICATION_TYPE":"U","NORAD_CAT_ID":55439,"ELEMENT_SET_NO":999,"REV_AT_EPOCH":17108,"BSTAR":4.6140367e-5,"MEAN_MOTION_DOT":4.58e-6,"MEAN_MOTION_DDOT":0},{"OBJECT_NAME":"CZ-6A DEB","OBJECT_ID":"2024-140BF","EPOCH":"2026-03-09T14:11:25.351296","MEAN_MOTION":14.73413114,"ECCENTRICITY":0.0141768,"INCLINATION":88.9712,"RA_OF_ASC_NODE":279.0945,"ARG_OF_PERICENTER":214.1655,"MEAN_ANOMALY":145.0382,"EPHEMERIS_TYPE":0,"CLASSIFICATION_TYPE":"U","NORAD_CAT_ID":60654,"ELEMENT_SET_NO":999,"REV_AT_EPOCH":8470,"BSTAR":0.0017796,"MEAN_MOTION_DOT":0.0001358,"MEAN_MOTION_DDOT":0}]
